[{"OBJECT_NAME":"COSMOS 2529 (757)","OBJECT_ID":"2018-086A","EPOCH":"2026-04-02T03:52:06.377952","MEAN_MOTION":2.13101947,"ECCENTRICITY":0.0009054,"INCLINATION":64.2936,"RA_OF_ASC_NODE":195.1591,"ARG_OF_PERICENTER":253.7554,"MEAN_ANOMALY":106.1568,"EPHEMERIS_TYPE":0,"CLASSIFICATION_TYPE":"U","NORAD_CAT_ID":43687,"ELEMENT_SET_NO":999,"REV_AT_EPOCH":5766,"BSTAR":0,"MEAN_MOTION_DOT":2.0e-8,"MEAN_MOTION_DDOT":0},{"OBJECT_NAME":"COSMOS 2534 (758)","OBJECT_ID":"2019-030A","EPOCH":"2026-04-02T11:14:14.906976","MEAN_MOTION":2.13102468,"ECCENTRICITY":0.00108436,"INCLINATION":64.367,"RA_OF_ASC_NODE":195.1642,"ARG_OF_PERICENTER":278.2113,"MEAN_ANOMALY":91.7529,"EPHEMERIS_TYPE":0,"CLASSIFICATION_TYPE":"U","NORAD_CAT_ID":44299,"ELEMENT_SET_NO":999,"REV_AT_EPOCH":5331,"BSTAR":0,"MEAN_MOTION_DOT":5.0e-8,"MEAN_MOTION_DDOT":0},{"OBJECT_NAME":"COSMOS 2544 (759)","OBJECT_ID":"2019-088A","EPOCH":"2026-04-02T11:28:37.465824","MEAN_MOTION":2.13086826,"ECCENTRICITY":0.00130768,"INCLINATION":65.5087,"RA_OF_ASC_NODE":76.2399,"ARG_OF_PERICENTER":256.6381,"MEAN_ANOMALY":103.2057,"EPHEMERIS_TYPE":0,"CLASSIFICATION_TYPE":"U","NORAD_CAT_ID":44850,"ELEMENT_SET_NO":999,"REV_AT_EPOCH":4910,"BSTAR":0,"MEAN_MOTION_DOT":1.0e-8,"MEAN_MOTION_DDOT":0},{"OBJECT_NAME":"COSMOS 2545 (760)","OBJECT_ID":"2020-018A","EPOCH":"2026-03-31T07:51:28.166112","MEAN_MOTION":2.13102306,"ECCENTRICITY":0.000733,"INCLINATION":64.4015,"RA_OF_ASC_NODE":315.1566,"ARG_OF_PERICENTER":245.6005,"MEAN_ANOMALY":114.3786,"EPHEMERIS_TYPE":0,"CLASSIFICATION_TYPE":"U","NORAD_CAT_ID":45358,"ELEMENT_SET_NO":999,"REV_AT_EPOCH":4700,"BSTAR":0,"MEAN_MOTION_DOT":-3.4e-7,"MEAN_MOTION_DDOT":0},{"OBJECT_NAME":"COSMOS 2547 (705K)","OBJECT_ID":"2020-075A","EPOCH":"2026-03-27T18:17:20.941152","MEAN_MOTION":2.13100219,"ECCENTRICITY":0.00073709,"INCLINATION":64.5985,"RA_OF_ASC_NODE":195.1905,"ARG_OF_PERICENTER":232.5213,"MEAN_ANOMALY":127.4084,"EPHEMERIS_TYPE":0,"CLASSIFICATION_TYPE":"U","NORAD_CAT_ID":46805,"ELEMENT_SET_NO":999,"REV_AT_EPOCH":4217,"BSTAR":0,"MEAN_MOTION_DOT":-3.1e-7,"MEAN_MOTION_DDOT":0},{"OBJECT_NAME":"COSMOS 2557 (706K)","OBJECT_ID":"2022-075A","EPOCH":"2026-04-05T08:58:05.712672","MEAN_MOTION":2.13102008,"ECCENTRICITY":0.00107303,"INCLINATION":64.3402,"RA_OF_ASC_NODE":317.0513,"ARG_OF_PERICENTER":283.4282,"MEAN_ANOMALY":76.499,"EPHEMERIS_TYPE":0,"CLASSIFICATION_TYPE":"U","NORAD_CAT_ID":52984,"ELEMENT_SET_NO":999,"REV_AT_EPOCH":2916,"BSTAR":0,"MEAN_MOTION_DOT":-4.7e-7,"MEAN_MOTION_DDOT":0},{"OBJECT_NAME":"COSMOS 2559 (707K)","OBJECT_ID":"2022-130A","EPOCH":"2026-04-02T09:03:42.068736","MEAN_MOTION":2.13101452,"ECCENTRICITY":0.00108595,"INCLINATION":64.3149,"RA_OF_ASC_NODE":317.2428,"ARG_OF_PERICENTER":177.921,"MEAN_ANOMALY":182.137,"EPHEMERIS_TYPE":0,"CLASSIFICATION_TYPE":"U","NORAD_CAT_ID":54031,"ELEMENT_SET_NO":999,"REV_AT_EPOCH":2707,"BSTAR":0,"MEAN_MOTION_DOT":-4.6e-7,"MEAN_MOTION_DDOT":0},{"OBJECT_NAME":"COSMOS 2564 (761)","OBJECT_ID":"2022-161A","EPOCH":"2026-04-03T15:05:27.392928","MEAN_MOTION":2.13101981,"ECCENTRICITY":0.00103271,"INCLINATION":64.7399,"RA_OF_ASC_NODE":195.1849,"ARG_OF_PERICENTER":215.7841,"MEAN_ANOMALY":144.1673,"EPHEMERIS_TYPE":0,"CLASSIFICATION_TYPE":"U","NORAD_CAT_ID":54377,"ELEMENT_SET_NO":999,"REV_AT_EPOCH":2604,"BSTAR":0,"MEAN_MOTION_DOT":1.5e-7,"MEAN_MOTION_DDOT":0},{"OBJECT_NAME":"COSMOS 2569 (703K)","OBJECT_ID":"2023-114A","EPOCH":"2026-04-05T01:10:51.680064","MEAN_MOTION":2.13103949,"ECCENTRICITY":0.00128361,"INCLINATION":65.262,"RA_OF_ASC_NODE":75.0854,"ARG_OF_PERICENTER":293.8382,"MEAN_ANOMALY":66.0118,"EPHEMERIS_TYPE":0,"CLASSIFICATION_TYPE":"U","NORAD_CAT_ID":57517,"ELEMENT_SET_NO":999,"REV_AT_EPOCH":2070,"BSTAR":0,"MEAN_MOTION_DOT":0,"MEAN_MOTION_DDOT":0},{"OBJECT_NAME":"COSMOS 2584 (704K)","OBJECT_ID":"2025-042A","EPOCH":"2026-04-04T22:27:59.539392","MEAN_MOTION":2.13103635,"ECCENTRICITY":0.00072792,"INCLINATION":65.044,"RA_OF_ASC_NODE":75.2908,"ARG_OF_PERICENTER":238.6738,"MEAN_ANOMALY":121.2398,"EPHEMERIS_TYPE":0,"CLASSIFICATION_TYPE":"U","NORAD_CAT_ID":63130,"ELEMENT_SET_NO":999,"REV_AT_EPOCH":848,"BSTAR":0,"MEAN_MOTION_DOT":-1.0e-8,"MEAN_MOTION_DDOT":0},{"OBJECT_NAME":"COSMOS 2596 (708K)","OBJECT_ID":"2025-206B","EPOCH":"2026-04-05T11:40:15.763584","MEAN_MOTION":2.13100653,"ECCENTRICITY":0.00121273,"INCLINATION":64.676,"RA_OF_ASC_NODE":317.5176,"ARG_OF_PERICENTER":317.4284,"MEAN_ANOMALY":221.751,"EPHEMERIS_TYPE":0,"CLASSIFICATION_TYPE":"U","NORAD_CAT_ID":65590,"ELEMENT_SET_NO":999,"REV_AT_EPOCH":436,"BSTAR":0,"MEAN_MOTION_DOT":-4.7e-7,"MEAN_MOTION_DDOT":0}]
